[{"OBJECT_NAME":"STARLINK-31622","OBJECT_ID":"2024-068B","EPOCH":"2026-03-09T21:47:27.244608","MEAN_MOTION":15.2756356,"ECCENTRICITY":7.269e-5,"INCLINATION":42.9976,"RA_OF_ASC_NODE":33.4981,"ARG_OF_PERICENTER":257.1263,"MEAN_ANOMALY":102.9507,"EPHEMERIS_TYPE":0,"CLASSIFICATION_TYPE":"U","NORAD_CAT_ID":59456,"ELEMENT_SET_NO":999,"REV_AT_EPOCH":10855,"BSTAR":0.00029825158,"MEAN_MOTION_DOT":7.95e-5,"MEAN_MOTION_DDOT":0},{"OBJECT_NAME":"FLOCK 4G-8","OBJECT_ID":"2025-009E","EPOCH":"2026-03-09T17:22:17.546016","MEAN_MOTION":15.27623414,"ECCENTRICITY":0.00030503,"INCLINATION":97.4045,"RA_OF_ASC_NODE":151.2834,"ARG_OF_PERICENTER":315.2538,"MEAN_ANOMALY":44.8455,"EPHEMERIS_TYPE":0,"CLASSIFICATION_TYPE":"U","NORAD_CAT_ID":62613,"ELEMENT_SET_NO":999,"REV_AT_EPOCH":6372,"BSTAR":0.0005043806,"MEAN_MOTION_DOT":0.00013559,"MEAN_MOTION_DDOT":0}]
